     3.04           N: GNSS NAV DATA    M: MIXED            RINEX VERSION / TYPE
sbf2rin-13.4.3                          20200317 143400 UTC PGM / RUN BY / DATE 
GPSA   7.4506E-09 -1.4901E-08 -5.9605E-08  1.1921E-07       IONOSPHERIC CORR    
GPSB   8.8064E+04 -4.9152E+04 -1.9661E+05  3.2768E+05       IONOSPHERIC CORR    
GAL    4.1500E+01  1.0156E-01  2.7466E-04  0.0000E+00       IONOSPHERIC CORR    
GPUT -9.3132257462E-10 0.000000000E+00  61440 2089          TIME SYSTEM CORR    
GAUT  9.3132257462E-10 0.000000000E+00 432000 2088          TIME SYSTEM CORR    
GAGP  1.4551915228E-09 1.509903313E-14 432000 2088          TIME SYSTEM CORR    
    18                                                      LEAP SECONDS        
                                                            END OF HEADER       
E09 2020 01 17 05 40 00 6.186256941874E-03-1.215028078150E-11 0.000000000000E+00
     1.140000000000E+02-7.700000000000E+01 3.257635693602E-09-3.139211684196E-02
    -3.604218363762E-06 2.726420061663E-04 1.072883605957E-05 5.440619771957E+03
     4.524000000000E+05 8.568167686462E-08 9.559655549339E-01 1.862645149231E-09
     9.593157675352E-01 1.052187500000E+02 1.615770328691E-01-5.651663985919E-09
    -3.685867816904E-10 5.170000000000E+02 2.088000000000E+03
     3.120000000000E+00 0.000000000000E+00-6.984919309616E-10-9.313225746155E-10
     4.531170000000E+05
E11 2020 01 17 05 30 00 8.314365986735E-04 1.700470875221E-10 0.000000000000E+00
     1.130000000000E+02 2.075000000000E+01 2.828332097099E-09 2.585988384956E+00
     1.026317477226E-06 2.809651196003E-04 1.030229032040E-05 5.440609699249E+03
     4.518000000000E+05 3.725290298462E-09-1.141520865497E+00 4.097819328308E-08
     9.864082379425E-01 1.303437500000E+02-4.219676968769E-01-5.502014895291E-09
     3.871589838686E-10 5.170000000000E+02 2.088000000000E+03
     3.120000000000E+00 0.000000000000E+00-1.606531441212E-08-1.746229827404E-08
     4.525170000000E+05
E12 2020 01 17 04 00 00 5.997663596645E-03-1.870148480521E-11 0.000000000000E+00
     1.140000000000E+02 3.715625000000E+01 2.769043913222E-09-2.371742215303E+00
     1.680105924606E-06 4.249175544828E-04 1.000240445137E-05 5.440610250473E+03
     4.524000000000E+05 0.000000000000E+00-1.141536568460E+00 3.911554813385E-08
     9.864230280442E-01 1.392500000000E+02-8.694127484736E-01-5.512372469582E-09
     3.771585673111E-10 0.000000000000E+00 2.088000000000E+03
    -1.000000000000E+00 0.000000000000E+00-1.303851604462E-08 0.000000000000E+00
     4.531170000000E+05
E14 2020 01 17 05 40 00-8.708299719729E-04-1.394084847561E-11 0.000000000000E+00
     1.140000000000E+02-4.481250000000E+01 6.620632918793E-09-5.328084281240E-02
    -2.959743142128E-06 1.666079343995E-01 1.087225973606E-05 5.289330783844E+03
     4.524000000000E+05-2.603977918625E-06-1.822486307470E+00-1.536682248116E-06
     8.833026787249E-01 1.664687500000E+02 1.663406158309E+00-1.128725587380E-08
    -2.482246252663E-10 5.170000000000E+02 2.088000000000E+03
     3.120000000000E+00 3.900000000000E+02-5.122274160385E-09-6.053596735001E-09
     4.531170000000E+05
E19 2020 01 17 05 40 00-1.926382537931E-06 1.989519660128E-13 0.000000000000E+00
     1.140000000000E+02-5.493750000000E+01 3.184418358092E-09-5.303155996248E-01
    -2.689659595490E-06 8.993409574032E-05 1.058168709278E-05 5.440614500046E+03
     4.524000000000E+05 1.303851604462E-08 9.612625750275E-01 7.450580596924E-09
     9.590601065087E-01 1.143750000000E+02 2.318279155804E+00-5.544873823394E-09
    -3.335853237391E-10 5.170000000000E+02 2.088000000000E+03
     3.120000000000E+00 0.000000000000E+00-5.587935447693E-09-5.587935447693E-09
     4.531170000000E+05
E21 2020 01 17 05 40 00-5.774508463219E-04-2.160049916711E-12 0.000000000000E+00
     1.140000000000E+02 5.234375000000E+01 3.010839699273E-09 1.781382208119E-01
     2.473592758179E-06 1.383596099913E-04 3.982335329056E-06 5.440621761322E+03
     4.524000000000E+05 2.607703208923E-08 3.055876289559E+00-2.048909664154E-08
     9.844461239383E-01 2.658437500000E+02 2.146526268121E-01-5.737381842126E-09
    -3.285851154604E-11 5.170000000000E+02 2.088000000000E+03
     3.120000000000E+00 0.000000000000E+00 0.000000000000E+00 0.000000000000E+00
     4.534170000000E+05
E24 2020 01 17 02 50 00 5.659194663167E-03-1.975308805413E-11 0.000000000000E+00
     9.700000000000E+01 5.700000000000E+01 3.175846572472E-09 2.555369813844E+00
     2.657994627953E-06 5.772711010650E-04 4.652887582779E-06 5.440610074997E+03
     4.422000000000E+05-8.195638656616E-08 3.061458088601E+00 1.862645149231E-08
     9.824287277227E-01 2.520937500000E+02 5.045743066880E-01-5.804884653889E-09
     1.071473202588E-12 5.170000000000E+02 2.088000000000E+03
     3.120000000000E+00 0.000000000000E+00 4.516914486885E-08 5.052424967289E-08
     4.429170000000E+05
E25 2020 01 17 03 30 00-5.013584159315E-04-9.805489753489E-13 0.000000000000E+00
     1.010000000000E+02 6.028125000000E+01 3.090843031733E-09-2.862604735663E+00
     2.870336174965E-06 2.158631104976E-04 4.740431904793E-06 5.440618721008E+03
     4.446000000000E+05-4.656612873077E-08 3.055914059178E+00 5.960464477539E-08
     9.844512602436E-01 2.490625000000E+02-8.490724539958E-01-5.760239937114E-09
     2.571535686212E-11 5.170000000000E+02 2.088000000000E+03
     3.120000000000E+00 0.000000000000E+00 1.164153218269E-09 1.164153218269E-09
     4.453170000000E+05
E26 2020 01 16 22 20 00 3.638641210273E-03-4.369837824925E-11 0.000000000000E+00
     9.300000000000E+01 4.584375000000E+01 2.770829701893E-09-1.374603616615E+00
     1.998618245125E-06 3.763990243897E-04 9.423121809959E-06 5.440615047455E+03
     4.398000000000E+05-7.450580596924E-09-1.138743404342E+00 3.539025783539E-08
     9.827884036875E-01 1.460312500000E+02-1.878636536821E+00-5.563803183307E-09
     3.100129132822E-10 0.000000000000E+00 2.088000000000E+03
    -1.000000000000E+00 0.000000000000E+00 3.725290298462E-09 0.000000000000E+00
     4.405170000000E+05
E27 2020 01 17 05 20 00 3.020464209840E-04-7.943867785798E-12 0.000000000000E+00
     1.120000000000E+02 5.803125000000E+01 3.014411276615E-09 1.465617183604E+00
     2.600252628326E-06 2.494220389053E-04 4.490837454796E-06 5.440624990463E+03
     4.512000000000E+05 7.264316082001E-08 3.055892151980E+00 7.450580596924E-09
     9.844180958908E-01 2.539375000000E+02-4.325064577786E-01-5.770597511406E-09
    -1.357199389945E-11 5.170000000000E+02 2.088000000000E+03
     3.120000000000E+00 0.000000000000E+00-2.328306436539E-10-2.328306436539E-10
     4.519170000000E+05
E30 2020 01 17 05 00 00 4.218314599711E-03-3.024069883395E-11 0.000000000000E+00
     1.100000000000E+02 5.871875000000E+01 3.056913046984E-09 1.133408927694E+00
     2.652406692505E-06 4.027152899653E-04 4.259869456291E-06 5.440612274170E+03
     4.500000000000E+05 1.862645149231E-08 3.061352385455E+00 6.146728992462E-08
     9.824127438798E-01 2.552187500000E+02 5.409825955366E-01-5.782740874369E-09
     3.107272287506E-11 5.170000000000E+02 2.088000000000E+03
     3.120000000000E+00 0.000000000000E+00-2.328306436539E-10-6.984919309616E-10
     4.507170000000E+05
E14 2020 01 17 05 50 00-8.708384702913E-04-1.394084847561E-11 0.000000000000E+00
     1.150000000000E+02-5.965625000000E+01 6.324549157144E-09 2.766622541505E-02
    -3.937631845474E-06 1.666105997283E-01 1.097656786442E-05 5.289338869095E+03
     4.530000000000E+05-2.777203917503E-06-1.822497122823E+00-2.212822437286E-06
     8.833026128936E-01 1.655000000000E+02 1.663417642216E+00-1.077366305202E-08
     3.178703834345E-11 5.170000000000E+02 2.088000000000E+03
     3.120000000000E+00 3.900000000000E+02-5.122274160385E-09-6.053596735001E-09
     4.537170000000E+05
E04 2020 01 17 05 50 00-4.470639978535E-04-7.560174708487E-12 0.000000000000E+00
     1.150000000000E+02-6.709375000000E+01 3.255849904932E-09-6.294635338771E-01
    -3.172084689140E-06 4.652771167457E-05 1.094862818718E-05 5.440620719910E+03
     4.530000000000E+05 3.911554813385E-08 9.630017900557E-01 3.725290298462E-08
     9.533406571164E-01 1.001875000000E+02 1.628867804996E+00-5.639877780690E-09
    -3.407284784231E-10 5.170000000000E+02 2.088000000000E+03
     3.120000000000E+00 0.000000000000E+00-5.122274160385E-09-5.587935447693E-09
     4.537170000000E+05
E09 2020 01 17 05 50 00 6.186249665916E-03-1.215028078150E-11 0.000000000000E+00
     1.150000000000E+02-7.443750000000E+01 3.249421065716E-09 4.232754359209E-02
    -3.477558493614E-06 2.729068510234E-04 1.072324812412E-05 5.440620410919E+03
     4.530000000000E+05 8.195638656616E-08 9.559621697415E-01 7.450580596924E-09
     9.593155700412E-01 1.053437500000E+02 1.622427732399E-01-5.648449566311E-09
    -3.710868858297E-10 5.170000000000E+02 2.088000000000E+03
     3.120000000000E+00 0.000000000000E+00-6.984919309616E-10-9.313225746155E-10
     4.537170000000E+05
E12 2020 01 17 04 00 00 5.997663596645E-03-1.870148480521E-11 0.000000000000E+00
     1.150000000000E+02 3.831250000000E+01 2.760114969867E-09-2.296977595411E+00
     1.715496182442E-06 4.248932236806E-04 9.985640645027E-06 5.440610570908E+03
     4.530000000000E+05 0.000000000000E+00-1.141539874655E+00 4.097819328308E-08
     9.864232591853E-01 1.398437500000E+02-8.697919456172E-01-5.511658154114E-09
     3.771585673111E-10 0.000000000000E+00 2.088000000000E+03
    -1.000000000000E+00 0.000000000000E+00-1.303851604462E-08 0.000000000000E+00
     4.537170000000E+05
E21 2020 01 17 05 50 00-5.774520686828E-04-2.145839061996E-12 0.000000000000E+00
     1.150000000000E+02 5.450000000000E+01 3.001910755918E-09 2.509214512913E-01
     2.566725015640E-06 1.385686919093E-04 4.030764102936E-06 5.440622365952E+03
     4.530000000000E+05 2.607703208923E-08 3.055872845850E+00-2.048909664154E-08
     9.844461049203E-01 2.647187500000E+02 2.162545747739E-01-5.737381842126E-09
    -3.285851154604E-11 5.170000000000E+02 2.088000000000E+03
     3.120000000000E+00 0.000000000000E+00 0.000000000000E+00 0.000000000000E+00
     4.537170000000E+05
